SPACEMOBILE-003         
1 61045U 24163A   26193.12443383  .00000008  00000+0  15017-4 0  9996
2 61045  52.9645 194.7701 0003953 176.8899 183.2120 15.20757146101564
SPACEMOBILE-005         
1 61046U 24163B   26194.09371225  .00000320  00000+0  29081-4 0  9992
2 61046  52.9757 190.2542 0008516 188.4778 171.6074 15.20746160101707
SPACEMOBILE-001         
1 61047U 24163C   26192.44911905  .00000309  00000+0  28551-4 0  9993
2 61047  52.9736 197.5273 0007475 183.3179 176.7767 15.20792937101458
SPACEMOBILE-002         
1 61048U 24163D   26194.07601240  .00013464  00000+0  61597-3 0  9995
2 61048  52.9787 190.0866 0006379 191.8159 168.2686 15.20818302101704
SPACEMOBILE-004         
1 61049U 24163E   26193.40140888  .00012717  00000+0  58302-3 0  9998
2 61049  52.9682 192.9673 0006853 216.7757 143.2768 15.20795560101607
SPACEMOBILE-001 DEB     
1 62369U 24163F   26194.29139380  .00006072  00000+0  18501-3 0  9991
2 62369  52.9925 156.4711 0005796 245.6748 114.3648 15.35366873 90517
SPACEMOBILE-002 DEB     
1 62370U 24163G   26193.95514700  .00014579  00000+0  32583-3 0  9995
2 62370  52.9409 142.3218 0004535 277.8645  82.1844 15.43763738102340
SPACEMOBILE-003 DEB     
1 62371U 24163H   26194.24509084  .00011862  00000+0  28756-3 0  9997
2 62371  52.9684 147.8051 0005426 229.5978 130.4552 15.41516378 95904
SPACEMOBILE-004 DEB     
1 62372U 24163J   26194.26267036  .00009391  00000+0  23576-3 0  9997
2 62372  52.9836 147.3611 0002739 255.7901 104.2798 15.40730557 98979
SPACEMOBILE-005 DEB     
1 62373U 24163K   26193.92199045  .00007375  00000+0  22749-3 0  9995
2 62373  52.9729 163.0995 0005766 221.1339 138.9227 15.34631237102072
SPACEMOBILE-006         
1 67232U 25309A   26194.30235536  .00000441  00000+0  36381-4 0  9991
2 67232  52.9935 212.0060 0010274 209.1142 150.9280 15.18650625 30567
SPACEMOBILE-008         
1 69589U 26139A   26194.23693320 -.00000117  00000+0  10367-4 0  9998
2 69589  52.9945 144.2981 0004990  51.8250 308.3190 15.12800584  3927
SPACEMOBILE-009         
1 69590U 26139B   26194.30482759 -.00000104  00000+0  11165-4 0  9993
2 69590  52.9936 144.0042 0005238  47.8586 312.2849 15.12693917  3934
SPACEMOBILE-010         
1 69591U 26139C   26194.24165291 -.00000028  00000+0  15486-4 0  9991
2 69591  52.9943 144.3248 0005156  39.4417 320.6949 15.12525408  3936
